[
  {
    "OBJECT_NAME": "STARLINK-5460",
    "OBJECT_ID": "23021AV",
    "EPOCH": "2025-11-10T11:39:14.406624",
    "MEAN_MOTION": 14.98337957,
    "ECCENTRICITY": 0.0002999,
    "INCLINATION": 69.9978,
    "RA_OF_ASC_NODE": 105.212,
    "ARG_OF_PERICENTER": 267.9411,
    "MEAN_ANOMALY": 92.1404,
    "EPHEMERIS_TYPE": 0,
    "CLASSIFICATION_TYPE": "U",
    "NORAD_CAT_ID": 55671,
    "ELEMENT_SET_NO": 999,
    "REV_AT_EPOCH": 15142,
    "BSTAR": 0.0,
    "MEAN_MOTION_DOT": -3.83e-06,
    "MEAN_MOTION_DDOT": 0.0,
    "TLE_LINE1": "1 55671U 23021AV  25314.48558341 -.00000383  00000+0 -24287-4 0  9997",
    "TLE_LINE2": "2 55671  69.9978 105.2120 0002999 267.9411  92.1404 14.98337957151423",
    "COMMENT": "Grouped by shell and plane from TLE"
  },
  {
    "OBJECT_NAME": "STARLINK-5463",
    "OBJECT_ID": "23021AX",
    "EPOCH": "2025-11-10T20:03:42.070176",
    "MEAN_MOTION": 14.98331241,
    "ECCENTRICITY": 0.0003146,
    "INCLINATION": 69.9998,
    "RA_OF_ASC_NODE": 104.038,
    "ARG_OF_PERICENTER": 269.5621,
    "MEAN_ANOMALY": 90.5178,
    "EPHEMERIS_TYPE": 0,
    "CLASSIFICATION_TYPE": "U",
    "NORAD_CAT_ID": 55673,
    "ELEMENT_SET_NO": 999,
    "REV_AT_EPOCH": 15148,
    "BSTAR": 0.00018795000000000001,
    "MEAN_MOTION_DOT": 2.15e-05,
    "MEAN_MOTION_DDOT": 0.0,
    "TLE_LINE1": "1 55673U 23021AX  25314.83590359  .00002150  00000+0  18795-3 0  9991",
    "TLE_LINE2": "2 55673  69.9998 104.0380 0003146 269.5621  90.5178 14.98331241151484",
    "COMMENT": "Grouped by shell and plane from TLE"
  },
  {
    "OBJECT_NAME": "STARLINK-5462",
    "OBJECT_ID": "23021AY",
    "EPOCH": "2025-11-11T03:52:20.063712",
    "MEAN_MOTION": 14.98344543,
    "ECCENTRICITY": 0.0003154,
    "INCLINATION": 69.9988,
    "RA_OF_ASC_NODE": 103.1665,
    "ARG_OF_PERICENTER": 273.2025,
    "MEAN_ANOMALY": 86.8773,
    "EPHEMERIS_TYPE": 0,
    "CLASSIFICATION_TYPE": "U",
    "NORAD_CAT_ID": 55674,
    "ELEMENT_SET_NO": 999,
    "REV_AT_EPOCH": 15153,
    "BSTAR": 6.8018e-05,
    "MEAN_MOTION_DOT": 7.19e-06,
    "MEAN_MOTION_DDOT": 0.0,
    "TLE_LINE1": "1 55674U 23021AY  25315.16134333  .00000719  00000+0  68018-4 0  9998",
    "TLE_LINE2": "2 55674  69.9988 103.1665 0003154 273.2025  86.8773 14.98344543151533",
    "COMMENT": "Grouped by shell and plane from TLE"
  },
  {
    "OBJECT_NAME": "STARLINK-5232",
    "OBJECT_ID": "23021AZ",
    "EPOCH": "2025-11-10T19:39:37.954656",
    "MEAN_MOTION": 14.98332892,
    "ECCENTRICITY": 0.0003031,
    "INCLINATION": 69.9986,
    "RA_OF_ASC_NODE": 103.9804,
    "ARG_OF_PERICENTER": 269.1492,
    "MEAN_ANOMALY": 90.932,
    "EPHEMERIS_TYPE": 0,
    "CLASSIFICATION_TYPE": "U",
    "NORAD_CAT_ID": 55675,
    "ELEMENT_SET_NO": 999,
    "REV_AT_EPOCH": 15148,
    "BSTAR": 1.9908000000000003e-05,
    "MEAN_MOTION_DOT": 1.45e-06,
    "MEAN_MOTION_DDOT": 0.0,
    "TLE_LINE1": "1 55675U 23021AZ  25314.81918929  .00000145  00000+0  19908-4 0  9998",
    "TLE_LINE2": "2 55675  69.9986 103.9804 0003031 269.1492  90.9320 14.98332892151483",
    "COMMENT": "Grouped by shell and plane from TLE"
  },
  {
    "OBJECT_NAME": "STARLINK-30083",
    "OBJECT_ID": "23056K",
    "EPOCH": "2025-11-11T02:45:56.437056",
    "MEAN_MOTION": 15.02547089,
    "ECCENTRICITY": 0.0001432,
    "INCLINATION": 43.0023,
    "RA_OF_ASC_NODE": 108.7194,
    "ARG_OF_PERICENTER": 271.2528,
    "MEAN_ANOMALY": 88.815,
    "EPHEMERIS_TYPE": 0,
    "CLASSIFICATION_TYPE": "U",
    "NORAD_CAT_ID": 56295,
    "ELEMENT_SET_NO": 999,
    "REV_AT_EPOCH": 14248,
    "BSTAR": 0.0,
    "MEAN_MOTION_DOT": -2.1e-06,
    "MEAN_MOTION_DDOT": 0.0,
    "TLE_LINE1": "1 56295U 23056K   25315.11523654 -.00000210  00000+0 -43634-6 0  9996",
    "TLE_LINE2": "2 56295  43.0023 108.7194 0001432 271.2528  88.8150 15.02547089142488",
    "COMMENT": "Grouped by shell and plane from TLE"
  },
  {
    "OBJECT_NAME": "STARLINK-6305",
    "OBJECT_ID": "23061W",
    "EPOCH": "2025-11-11T02:49:13.311552",
    "MEAN_MOTION": 15.02534728,
    "ECCENTRICITY": 0.0001373,
    "INCLINATION": 43.0028,
    "RA_OF_ASC_NODE": 109.1577,
    "ARG_OF_PERICENTER": 272.0487,
    "MEAN_ANOMALY": 88.0199,
    "EPHEMERIS_TYPE": 0,
    "CLASSIFICATION_TYPE": "U",
    "NORAD_CAT_ID": 56394,
    "ELEMENT_SET_NO": 999,
    "REV_AT_EPOCH": 13906,
    "BSTAR": 5.9929e-05,
    "MEAN_MOTION_DOT": 6.06e-06,
    "MEAN_MOTION_DDOT": 0.0,
    "TLE_LINE1": "1 56394U 23061W   25315.11751518  .00000606  00000+0  59929-4 0  9993",
    "TLE_LINE2": "2 56394  43.0028 109.1577 0001373 272.0487  88.0199 15.02534728139061",
    "COMMENT": "Grouped by shell and plane from TLE"
  },
  {
    "OBJECT_NAME": "STARLINK-6277",
    "OBJECT_ID": "23061AB",
    "EPOCH": "2025-11-11T02:44:25.343808",
    "MEAN_MOTION": 15.02538419,
    "ECCENTRICITY": 0.0001202,
    "INCLINATION": 43.0027,
    "RA_OF_ASC_NODE": 109.1341,
    "ARG_OF_PERICENTER": 265.0058,
    "MEAN_ANOMALY": 95.0647,
    "EPHEMERIS_TYPE": 0,
    "CLASSIFICATION_TYPE": "U",
    "NORAD_CAT_ID": 56399,
    "ELEMENT_SET_NO": 999,
    "REV_AT_EPOCH": 13906,
    "BSTAR": 2.9892000000000005e-05,
    "MEAN_MOTION_DOT": 2e-06,
    "MEAN_MOTION_DDOT": 0.0,
    "TLE_LINE1": "1 56399U 23061AB  25315.11418222  .00000200  00000+0  29892-4 0  9996",
    "TLE_LINE2": "2 56399  43.0027 109.1341 0001202 265.0058  95.0647 15.02538419139068",
    "COMMENT": "Grouped by shell and plane from TLE"
  },
  {
    "OBJECT_NAME": "STARLINK-6287",
    "OBJECT_ID": "23061AG",
    "EPOCH": "2025-11-11T03:51:23.469120",
    "MEAN_MOTION": 15.02546605,
    "ECCENTRICITY": 0.000157,
    "INCLINATION": 43.0025,
    "RA_OF_ASC_NODE": 108.6203,
    "ARG_OF_PERICENTER": 260.976,
    "MEAN_ANOMALY": 99.0905,
    "EPHEMERIS_TYPE": 0,
    "CLASSIFICATION_TYPE": "U",
    "NORAD_CAT_ID": 56404,
    "ELEMENT_SET_NO": 999,
    "REV_AT_EPOCH": 13907,
    "BSTAR": 0.0001575,
    "MEAN_MOTION_DOT": 1.925e-05,
    "MEAN_MOTION_DDOT": 0.0,
    "TLE_LINE1": "1 56404U 23061AG  25315.16068830  .00001925  00000+0  15750-3 0  9996",
    "TLE_LINE2": "2 56404  43.0025 108.6203 0001570 260.9760  99.0905 15.02546605139074",
    "COMMENT": "Grouped by shell and plane from TLE"
  },
  {
    "OBJECT_NAME": "STARLINK-6282",
    "OBJECT_ID": "23061AK",
    "EPOCH": "2025-11-11T03:54:34.986816",
    "MEAN_MOTION": 15.02541075,
    "ECCENTRICITY": 0.0001257,
    "INCLINATION": 43.0018,
    "RA_OF_ASC_NODE": 108.637,
    "ARG_OF_PERICENTER": 274.1775,
    "MEAN_ANOMALY": 85.8924,
    "EPHEMERIS_TYPE": 0,
    "CLASSIFICATION_TYPE": "U",
    "NORAD_CAT_ID": 56407,
    "ELEMENT_SET_NO": 999,
    "REV_AT_EPOCH": 13907,
    "BSTAR": 4.8383e-05,
    "MEAN_MOTION_DOT": 4.5e-06,
    "MEAN_MOTION_DDOT": 0.0,
    "TLE_LINE1": "1 56407U 23061AK  25315.16290494  .00000450  00000+0  48383-4 0  9993",
    "TLE_LINE2": "2 56407  43.0018 108.6370 0001257 274.1775  85.8924 15.02541075139079",
    "COMMENT": "Grouped by shell and plane from TLE"
  },
  {
    "OBJECT_NAME": "STARLINK-6289",
    "OBJECT_ID": "23061AL",
    "EPOCH": "2025-11-11T03:27:24.617952",
    "MEAN_MOTION": 15.02545125,
    "ECCENTRICITY": 0.0001665,
    "INCLINATION": 43.0024,
    "RA_OF_ASC_NODE": 108.4854,
    "ARG_OF_PERICENTER": 274.8811,
    "MEAN_ANOMALY": 85.1841,
    "EPHEMERIS_TYPE": 0,
    "CLASSIFICATION_TYPE": "U",
    "NORAD_CAT_ID": 56408,
    "ELEMENT_SET_NO": 999,
    "REV_AT_EPOCH": 13907,
    "BSTAR": 0.0,
    "MEAN_MOTION_DOT": -4.8e-06,
    "MEAN_MOTION_DDOT": 0.0,
    "TLE_LINE1": "1 56408U 23061AL  25315.14403493 -.00000480  00000+0 -20428-4 0  9992",
    "TLE_LINE2": "2 56408  43.0024 108.4854 0001665 274.8811  85.1841 15.02545125139074",
    "COMMENT": "Grouped by shell and plane from TLE"
  },
  {
    "OBJECT_NAME": "STARLINK-6241",
    "OBJECT_ID": "23061AM",
    "EPOCH": "2025-11-11T03:46:35.299200",
    "MEAN_MOTION": 15.02539521,
    "ECCENTRICITY": 0.0001264,
    "INCLINATION": 43.0024,
    "RA_OF_ASC_NODE": 108.5957,
    "ARG_OF_PERICENTER": 271.4162,
    "MEAN_ANOMALY": 88.6536,
    "EPHEMERIS_TYPE": 0,
    "CLASSIFICATION_TYPE": "U",
    "NORAD_CAT_ID": 56409,
    "ELEMENT_SET_NO": 999,
    "REV_AT_EPOCH": 13907,
    "BSTAR": 6.3867e-05,
    "MEAN_MOTION_DOT": 6.59e-06,
    "MEAN_MOTION_DDOT": 0.0,
    "TLE_LINE1": "1 56409U 23061AM  25315.15735300  .00000659  00000+0  63867-4 0  9999",
    "TLE_LINE2": "2 56409  43.0024 108.5957 0001264 271.4162  88.6536 15.02539521139079",
    "COMMENT": "Grouped by shell and plane from TLE"
  },
  {
    "OBJECT_NAME": "STARLINK-6281",
    "OBJECT_ID": "23061AN",
    "EPOCH": "2025-11-11T03:25:48.834912",
    "MEAN_MOTION": 15.02532814,
    "ECCENTRICITY": 0.000126,
    "INCLINATION": 43.0038,
    "RA_OF_ASC_NODE": 108.4861,
    "ARG_OF_PERICENTER": 270.9704,
    "MEAN_ANOMALY": 89.0994,
    "EPHEMERIS_TYPE": 0,
    "CLASSIFICATION_TYPE": "U",
    "NORAD_CAT_ID": 56410,
    "ELEMENT_SET_NO": 999,
    "REV_AT_EPOCH": 13907,
    "BSTAR": 0.00012911000000000002,
    "MEAN_MOTION_DOT": 1.541e-05,
    "MEAN_MOTION_DDOT": 0.0,
    "TLE_LINE1": "1 56410U 23061AN  25315.14292633  .00001541  00000+0  12911-3 0  9991",
    "TLE_LINE2": "2 56410  43.0038 108.4861 0001260 270.9704  89.0994 15.02532814139072",
    "COMMENT": "Grouped by shell and plane from TLE"
  },
  {
    "OBJECT_NAME": "STARLINK-6279",
    "OBJECT_ID": "23061AP",
    "EPOCH": "2025-11-11T03:43:23.455776",
    "MEAN_MOTION": 15.02537966,
    "ECCENTRICITY": 0.0001194,
    "INCLINATION": 43.0031,
    "RA_OF_ASC_NODE": 108.5769,
    "ARG_OF_PERICENTER": 268.5146,
    "MEAN_ANOMALY": 91.556,
    "EPHEMERIS_TYPE": 0,
    "CLASSIFICATION_TYPE": "U",
    "NORAD_CAT_ID": 56411,
    "ELEMENT_SET_NO": 999,
    "REV_AT_EPOCH": 13907,
    "BSTAR": 4.7937000000000005e-05,
    "MEAN_MOTION_DOT": 4.44e-06,
    "MEAN_MOTION_DDOT": 0.0,
    "TLE_LINE1": "1 56411U 23061AP  25315.15513259  .00000444  00000+0  47937-4 0  9991",
    "TLE_LINE2": "2 56411  43.0031 108.5769 0001194 268.5146  91.5560 15.02537966139073",
    "COMMENT": "Grouped by shell and plane from TLE"
  }
]